NORAD_CAT_ID,OBJECT_NAME,OBJECT_TYPE,EPOCH,MEAN_MOTION,ECCENTRICITY,INCLINATION,RA_OF_ASC_NODE,ARG_OF_PERICENTER,MEAN_ANOMALY,BSTAR,MEAN_MOTION_DOT,MEAN_MOTION_DDOT,TLE_LINE0,TLE_LINE1,TLE_LINE2,SEMIMAJOR_AXIS,PERIOD,APOGEE,PERIGEE,DECAYED
55296.0,STARLINK-5285,PAYLOAD,2023-10-17 11:29:09,14.98328646,0.0003059,70.0002,68.5383,270.059,90.0218,3.2633e-05,2.96e-06,0.0,0 STARLINK-5285,1 55296U 23010AD  23290.47857975  .00000296  00000-0  32633-4 0  9999,2 55296  70.0002  68.5383 0003059 270.0590  90.0218 14.98328646 42019,6950.197,96.107,574.188,569.936,0.0
55296.0,STARLINK-5285,PAYLOAD,2023-10-18 01:54:21,14.98339872,0.0003126,69.9999,67.0232,272.4399,87.6402,-0.00013981,-1.761e-05,0.0,0 STARLINK-5285,1 55296U 23010AD  23291.07941692 -.00001761  00000-0 -13981-3 0  9990,2 55296  69.9999  67.0232 0003126 272.4399  87.6402 14.98339872 43297,6950.162,96.106,574.2,569.855,0.0
55296.0,STARLINK-5285,PAYLOAD,2023-10-18 11:31:10,14.98326594,0.0002972,70.0003,66.0136,269.9011,90.1808,-3.2583e-05,-4.82e-06,0.0,0 STARLINK-5285,1 55296U 23010AD  23291.47998331 -.00000482  00000-0 -32583-4 0  9995,2 55296  70.0003  66.0136 0002972 269.9011  90.1808 14.98326594 42169,6950.203,96.107,574.134,570.003,0.0
55296.0,STARLINK-5285,PAYLOAD,2023-10-19 11:33:10,14.9833649,0.0002899,70.0004,63.4889,269.2297,90.853,6.5077e-05,6.84e-06,0.0,0 STARLINK-5285,1 55296U 23010AD  23292.48137260  .00000684  00000-0  65077-4 0  9999,2 55296  70.0004  63.4889 0002899 269.2297  90.8530 14.98336490 42315,6950.173,96.107,574.053,570.023,0.0
55296.0,STARLINK-5285,PAYLOAD,2023-10-19 19:33:50,14.98341117,0.000282,70.0004,62.647,270.4243,89.6593,0.00010531,1.164e-05,0.0,0 STARLINK-5285,1 55296U 23010AD  23292.81516679  .00001164  00000-0  10531-3 0  9999,2 55296  70.0004  62.6470 0002820 270.4243  89.6593 14.98341117 43555,6950.159,96.106,573.983,570.064,0.0
55296.0,STARLINK-5285,PAYLOAD,2023-10-20 01:58:24,14.98326184,0.000153,69.9999,61.9729,289.2688,70.8306,-1.8777e-06,-1.15e-06,0.0,0 STARLINK-5285,1 55296U 23010AD  23293.08222351 -.00000115  00000-0 -18777-5 0  9999,2 55296  69.9999  61.9729 0001530 289.2688  70.8306 14.98326184 42406,6950.205,96.107,573.133,571.006,0.0
55296.0,STARLINK-5285,PAYLOAD,2023-10-20 11:35:13,14.98315193,0.0002903,69.9997,60.9631,274.3047,85.778,-0.00013791,-1.737e-05,0.0,0 STARLINK-5285,1 55296U 23010AD  23293.48279009 -.00001737  00000-0 -13791-3 0  9995,2 55296  69.9997  60.9631 0002903 274.3047  85.7780 14.98315193 42469,6950.239,96.108,574.121,570.086,0.0
55296.0,STARLINK-5285,PAYLOAD,2023-10-21 11:37:13,14.98324392,0.0003164,70.0001,58.4373,274.9315,85.1483,-6.0497e-06,-1.65e-06,0.0,0 STARLINK-5285,1 55296U 23010AD  23294.48418522 -.00000165  00000-0 -60497-5 0  9992,2 55296  70.0001  58.4373 0003164 274.9315  85.1483 14.98324392 42619,6950.21,96.107,574.274,569.876,0.0
55296.0,STARLINK-5285,PAYLOAD,2023-10-21 18:01:45,14.98339586,0.0002926,69.9993,57.7634,274.7669,85.3156,-1.3452e-07,-9.5e-07,0.0,0 STARLINK-5285,1 55296U 23010AD  23294.75121530 -.00000095  00000-0 -13452-6 0  9994,2 55296  69.9993  57.7634 0002926 274.7669  85.3156 14.98339586 42657,6950.163,96.106,574.062,569.995,0.0
55296.0,STARLINK-5285,PAYLOAD,2023-10-22 02:02:26,14.98326358,0.0002315,69.9994,56.9218,277.1768,82.9128,6.891e-06,-1.1e-07,0.0,0 STARLINK-5285,1 55296U 23010AD  23295.08502530 -.00000011  00000-0  68910-5 0  9999,2 55296  69.9994  56.9218 0002315 277.1768  82.9128 14.98326358 42707,6950.204,96.107,573.678,570.46,0.0
55296.0,STARLINK-5285,PAYLOAD,2023-10-22 14:51:30,14.98322582,0.0002935,69.9998,55.5773,273.5889,86.4934,0.00012758,1.429e-05,0.0,0 STARLINK-5285,1 55296U 23010AD  23295.61910359  .00001429  00000-0  12758-3 0  9990,2 55296  69.9998  55.5773 0002935 273.5889  86.4934 14.98322582 43973,6950.216,96.107,574.121,570.041,0.0
55296.0,STARLINK-5285,PAYLOAD,2023-10-22 18:03:46,14.98321344,0.0002859,69.9998,55.2405,271.58,88.5032,0.00019004,2.175e-05,0.0,0 STARLINK-5285,1 55296U 23010AD  23295.75262453  .00002175  00000-0  19004-3 0  9990,2 55296  69.9998  55.2405 0002859 271.5800  88.5032 14.98321344 43997,6950.22,96.108,574.072,570.098,0.0
55296.0,STARLINK-5285,PAYLOAD,2023-10-23 11:41:15,14.9833565,0.0003042,70.0002,53.3891,273.2061,86.875,1.221e-05,5.3e-07,0.0,0 STARLINK-5285,1 55296U 23010AD  23296.48698018  .00000053  00000-0  12210-4 0  9997,2 55296  70.0002  53.3891 0003042 273.2061  86.8750 14.98335650 42911,6950.175,96.107,574.155,569.926,0.0
55296.0,STARLINK-5285,PAYLOAD,2023-10-23 14:53:30,14.98338312,0.0002911,70.0001,53.0526,270.316,89.7665,3.4326e-05,3.17e-06,0.0,0 STARLINK-5285,1 55296U 23010AD  23296.62049727  .00000317  00000-0  34326-4 0  9995,2 55296  70.0001  53.0526 0002911 270.3160  89.7665 14.98338312 44124,6950.167,96.106,574.055,570.009,0.0
55296.0,STARLINK-5285,PAYLOAD,2023-10-24 11:43:16,14.98329007,0.0003098,70.0003,50.8645,274.061,86.0195,1.7889e-05,1.2e-06,0.0,0 STARLINK-5285,1 55296U 23010AD  23297.48838160  .00000120  00000-0  17889-4 0  9994,2 55296  70.0003  50.8645 0003098 274.0610  86.0195 14.98329007 43062,6950.196,96.107,574.214,569.908,0.0
55296.0,STARLINK-5285,PAYLOAD,2023-10-25 14:57:33,14.98329796,0.000228,70.0015,48.0026,257.7248,102.3656,-4.7285e-05,-6.57e-06,0.0,0 STARLINK-5285,1 55296U 23010AD  23298.62330062 -.00000657  00000-0 -47285-4 0  9999,2 55296  70.0015  48.0026 0002280 257.7248 102.3656 14.98329796 43232,6950.194,96.107,573.643,570.474,0.0
55296.0,STARLINK-5285,PAYLOAD,2023-10-26 13:23:25,14.98330587,0.0002888,70.0011,45.6465,269.5835,90.4993,1.3166e-05,6.4e-07,0.0,0 STARLINK-5285,1 55296U 23010AD  23299.55793729  .00000064  00000-0  13166-4 0  9996,2 55296  70.0011  45.6465 0002888 269.5835  90.4993 14.98330587 44563,6950.191,96.107,574.063,570.049,0.0
55296.0,STARLINK-5285,PAYLOAD,2023-10-26 16:35:41,14.98335021,0.000275,70.0013,45.3102,262.3125,97.7722,6.1582e-05,6.42e-06,0.0,0 STARLINK-5285,1 55296U 23010AD  23299.69145231  .00000642  00000-0  61582-4 0  9997,2 55296  70.0013  45.3102 0002750 262.3125  97.7722 14.98335021 44581,6950.177,96.107,573.954,570.131,0.0
55296.0,STARLINK-5285,PAYLOAD,2023-10-27 00:36:21,14.98339906,0.0002981,70.0014,44.4677,273.7979,86.2839,4.698e-05,4.68e-06,0.0,0 STARLINK-5285,1 55296U 23010AD  23300.02524872  .00000468  00000-0  46980-4 0  9990,2 55296  70.0014  44.4677 0002981 273.7979  86.2839 14.98339906 43440,6950.162,96.106,574.099,569.955,0.0
55296.0,STARLINK-5285,PAYLOAD,2023-10-27 11:49:17,14.98336213,0.000288,70.001,43.289,273.3811,86.7019,5.1112e-05,5.17e-06,0.0,0 STARLINK-5285,1 55296U 23010AD  23300.49256869  .00000517  00000-0  51112-4 0  9997,2 55296  70.0010  43.2890 0002880 273.3811  86.7019 14.98336213 44702,6950.174,96.107,574.04,570.037,0.0
55296.0,STARLINK-5285,PAYLOAD,2023-10-27 16:37:41,14.98337503,0.0002952,70.0013,42.7843,279.4041,80.6784,0.00012671,1.419e-05,0.0,0 STARLINK-5285,1 55296U 23010AD  23300.69284502  .00001419  00000-0  12671-3 0  9992,2 55296  70.0013  42.7843 0002952 279.4041  80.6784 14.98337503 44737,6950.17,96.107,574.086,569.983,0.0
55296.0,STARLINK-5285,PAYLOAD,2023-10-28 00:38:23,14.9832628,0.0002704,70.0012,41.9441,270.2103,89.8746,-9.3561e-05,-1.209e-05,0.0,0 STARLINK-5285,1 55296U 23010AD  23301.02665711 -.00001209  00000-0 -93561-4 0  9992,2 55296  70.0012  41.9441 0002704 270.2103  89.8746 14.98326280 43596,6950.204,96.107,573.949,570.19,0.0
55296.0,STARLINK-5285,PAYLOAD,2023-10-28 13:27:28,14.9832008,0.0002387,70.0024,40.5981,246.4314,113.6594,-0.00013572,-1.711e-05,0.0,0 STARLINK-5285,1 55296U 23010AD  23301.56074329 -.00001711  00000-0 -13572-3 0  9991,2 55296  70.0024  40.5981 0002387 246.4314 113.6594 14.98320080 44869,6950.224,96.108,573.748,570.43,0.0
55296.0,STARLINK-5285,PAYLOAD,2023-10-28 16:39:42,14.98345302,0.0002716,70.0018,40.261,265.0287,95.0561,0.00011103,1.233e-05,0.0,0 STARLINK-5285,1 55296U 23010AD  23301.69424083  .00001233  00000-0  11103-3 0  9996,2 55296  70.0018  40.2610 0002716 265.0287  95.0561 14.98345302 43691,6950.146,96.106,573.898,570.123,0.0
55296.0,STARLINK-5285,PAYLOAD,2023-10-29 13:29:27,14.98336687,0.0002601,70.0021,38.0731,261.7257,98.3607,1.8908e-05,1.33e-06,0.0,0 STARLINK-5285,1 55296U 23010AD  23302.56212345  .00000133  00000-0  18908-4 0  9998,2 55296  70.0021  38.0731 0002601 261.7257  98.3607 14.98336687 43825,6950.172,96.107,573.845,570.229,0.0
55296.0,STARLINK-5285,PAYLOAD,2023-10-29 16:41:43,14.98335434,0.0002552,70.0024,37.7372,259.7058,100.3814,3.2083e-05,2.9e-06,0.0,0 STARLINK-5285,1 55296U 23010AD  23302.69564356  .00000290  00000-0  32083-4 0  9998,2 55296  70.0024  37.7372 0002552 259.7058 100.3814 14.98335434 45034,6950.176,96.107,573.815,570.267,0.0
55296.0,STARLINK-5285,PAYLOAD,2023-10-30 11:55:22,14.98313038,0.0002827,70.0009,35.7149,267.8615,92.2221,-2.8705e-05,-4.35e-06,0.0,0 STARLINK-5285,1 55296U 23010AD  23303.49678253 -.00000435  00000-0 -28705-4 0  9998,2 55296  70.0009  35.7149 0002827 267.8615  92.2221 14.98313038 43968,6950.245,96.108,574.075,570.146,0.0
55296.0,STARLINK-5285,PAYLOAD,2023-10-31 11:57:22,14.98333179,0.000225,70.0013,33.1918,255.0993,104.9917,-8.189e-05,-1.07e-05,0.0,0 STARLINK-5285,1 55296U 23010AD  23304.49817452 -.00001070  00000-0 -81890-4 0  9995,2 55296  70.0013  33.1918 0002250 255.0993 104.9917 14.98333179 44116,6950.183,96.107,573.612,570.484,0.0
55296.0,STARLINK-5285,PAYLOAD,2023-10-31 13:33:30,14.98340341,0.0002405,70.0007,33.0229,260.0356,100.0532,-0.00017676,-2.202e-05,0.0,0 STARLINK-5285,1 55296U 23010AD  23304.56493221 -.00002202  00000-0 -17676-3 0  9995,2 55296  70.0007  33.0229 0002405 260.0356 100.0532 14.98340341 45316,6950.161,96.106,573.697,570.354,0.0
55296.0,STARLINK-5285,PAYLOAD,2023-10-31 16:45:45,14.98344727,0.0002441,70.0011,32.6858,261.7434,98.3449,-0.00018759,-2.331e-05,0.0,0 STARLINK-5285,1 55296U 23010AD  23304.69844888 -.00002331  00000-0 -18759-3 0  9994,2 55296  70.0011  32.6858 0002441 261.7434  98.3449 14.98344727 44147,6950.147,96.106,573.709,570.316,0.0
